[{"OBJECT_NAME":"ITAMSAT (IO-26)","OBJECT_ID":"1993-061D","EPOCH":"2026-03-09T18:51:40.558176","MEAN_MOTION":14.31337175,"ECCENTRICITY":0.00091856,"INCLINATION":98.6929,"RA_OF_ASC_NODE":136.1036,"ARG_OF_PERICENTER":22.8845,"MEAN_ANOMALY":337.2746,"EPHEMERIS_TYPE":0,"CLASSIFICATION_TYPE":"U","NORAD_CAT_ID":22826,"ELEMENT_SET_NO":999,"REV_AT_EPOCH":69309,"BSTAR":7.3937292e-5,"MEAN_MOTION_DOT":1.51e-6,"MEAN_MOTION_DDOT":0},{"OBJECT_NAME":"COSMOS 1275 DEB","OBJECT_ID":"1981-053CP","EPOCH":"2026-03-09T22:07:30.269568","MEAN_MOTION":14.30049648,"ECCENTRICITY":0.0038231,"INCLINATION":82.9352,"RA_OF_ASC_NODE":233.691,"ARG_OF_PERICENTER":207.9843,"MEAN_ANOMALY":151.9289,"EPHEMERIS_TYPE":0,"CLASSIFICATION_TYPE":"U","NORAD_CAT_ID":12746,"ELEMENT_SET_NO":999,"REV_AT_EPOCH":27287,"BSTAR":0.0020726388,"MEAN_MOTION_DOT":5.41e-5,"MEAN_MOTION_DDOT":0}]
